[{"OBJECT_NAME":"TOMORROW-S1","OBJECT_ID":"2024-149M","EPOCH":"2026-03-09T17:23:34.533600","MEAN_MOTION":15.31198363,"ECCENTRICITY":0.00018188,"INCLINATION":97.3791,"RA_OF_ASC_NODE":149.6044,"ARG_OF_PERICENTER":207.204,"MEAN_ANOMALY":152.9106,"EPHEMERIS_TYPE":0,"CLASSIFICATION_TYPE":"U","NORAD_CAT_ID":60479,"ELEMENT_SET_NO":999,"REV_AT_EPOCH":8686,"BSTAR":0.0002885603,"MEAN_MOTION_DOT":8.62e-5,"MEAN_MOTION_DDOT":0},{"OBJECT_NAME":"STARLINK-35637","OBJECT_ID":"2025-237S","EPOCH":"2026-03-09T21:51:38.100096","MEAN_MOTION":15.30214613,"ECCENTRICITY":0.00021241,"INCLINATION":53.1607,"RA_OF_ASC_NODE":38.6517,"ARG_OF_PERICENTER":100.0193,"MEAN_ANOMALY":260.1047,"EPHEMERIS_TYPE":0,"CLASSIFICATION_TYPE":"U","NORAD_CAT_ID":66130,"ELEMENT_SET_NO":999,"REV_AT_EPOCH":2264,"BSTAR":0.00065822662,"MEAN_MOTION_DOT":0.00019195,"MEAN_MOTION_DDOT":0}]
